[{"OBJECT_NAME":"THEOS","OBJECT_ID":"2008-049A","EPOCH":"2026-03-09T23:28:13.334304","MEAN_MOTION":14.20116597,"ECCENTRICITY":0.00010425,"INCLINATION":98.5696,"RA_OF_ASC_NODE":129.4305,"ARG_OF_PERICENTER":90.3146,"MEAN_ANOMALY":269.8151,"EPHEMERIS_TYPE":0,"CLASSIFICATION_TYPE":"U","NORAD_CAT_ID":33396,"ELEMENT_SET_NO":999,"REV_AT_EPOCH":90388,"BSTAR":-7.5504934e-5,"MEAN_MOTION_DOT":-2.03e-6,"MEAN_MOTION_DDOT":0},{"OBJECT_NAME":"CZ-6A DEB","OBJECT_ID":"2022-151KM","EPOCH":"2026-03-09T22:00:26.711712","MEAN_MOTION":14.06963931,"ECCENTRICITY":0.00668624,"INCLINATION":98.858,"RA_OF_ASC_NODE":64.3708,"ARG_OF_PERICENTER":294.903,"MEAN_ANOMALY":64.52,"EPHEMERIS_TYPE":0,"CLASSIFICATION_TYPE":"U","NORAD_CAT_ID":54533,"ELEMENT_SET_NO":999,"REV_AT_EPOCH":17033,"BSTAR":0.00039304874,"MEAN_MOTION_DOT":6.25e-6,"MEAN_MOTION_DDOT":0}]
